[
    {
        "CCSDS_OMM_VERS": "3.0",
        "COMMENT": "GENERATED VIA SPACE-TRACK.ORG API",
        "CREATION_DATE": "2025-05-04T02:26:54",
        "ORIGINATOR": "18 SPCS",
        "OBJECT_NAME": "GALILEO 17 (26D)",
        "OBJECT_ID": "2016-069C",
        "CENTER_NAME": "EARTH",
        "REF_FRAME": "TEME",
        "TIME_SYSTEM": "UTC",
        "MEAN_ELEMENT_THEORY": "SGP4",
        "EPOCH": "2025-05-02T22:41:10.351680",
        "MEAN_MOTION": "1.70474668",
        "ECCENTRICITY": "0.00059030",
        "INCLINATION": "55.2530",
        "RA_OF_ASC_NODE": "112.4520",
        "ARG_OF_PERICENTER": "293.0863",
        "MEAN_ANOMALY": "66.8351",
        "EPHEMERIS_TYPE": "0",
        "CLASSIFICATION_TYPE": "U",
        "NORAD_CAT_ID": "41861",
        "ELEMENT_SET_NO": "999",
        "REV_AT_EPOCH": "5252",
        "BSTAR": "0.00000000000000",
        "MEAN_MOTION_DOT": "0.00000040",
        "MEAN_MOTION_DDOT": "0.0000000000000",
        "SEMIMAJOR_AXIS": "29600.243",
        "PERIOD": "844.700",
        "APOAPSIS": "23239.581",
        "PERIAPSIS": "23204.635",
        "OBJECT_TYPE": "PAYLOAD",
        "RCS_SIZE": "LARGE",
        "COUNTRY_CODE": "ESA",
        "LAUNCH_DATE": "2016-11-17",
        "SITE": "FRGUI",
        "DECAY_DATE": null,
        "FILE": "4718307",
        "GP_ID": "286798194",
        "TLE_LINE0": "0 GALILEO 17 (26D)",
        "TLE_LINE1": "1 41861U 16069C   25122.94525870  .00000040  00000-0  00000-0 0  9998",
        "TLE_LINE2": "2 41861  55.2530 112.4520 0005903 293.0863  66.8351  1.70474668 52521"
    }
]